[
  {
    "COMMENT": "GENERATED VIA SPACETRACK.ORG API",
    "ORIGINATOR": "18 SPCS",
    "NORAD_CAT_ID": "48621",
    "OBJECT_NAME": "HAIYANG 2D",
    "OBJECT_TYPE": "PAYLOAD",
    "CLASSIFICATION_TYPE": "U",
    "INTLDES": "21043A",
    "EPOCH": "2023-07-04 17:26:05",
    "EPOCH_MICROSECONDS": "953920",
    "MEAN_MOTION": "13.83376231",
    "ECCENTRICITY": "0.0008055",
    "INCLINATION": "65.9977",
    "RA_OF_ASC_NODE": "109.6941",
    "ARG_OF_PERICENTER": "261.1825",
    "MEAN_ANOMALY": "98.8332",
    "EPHEMERIS_TYPE": "0",
    "ELEMENT_SET_NO": "999",
    "REV_AT_EPOCH": "10741",
    "BSTAR": "0.000067835",
    "MEAN_MOTION_DOT": "-0.00000007",
    "MEAN_MOTION_DDOT": "0",
    "FILE": "3949645",
    "TLE_LINE0": "0 HAIYANG 2D",
    "TLE_LINE1": "1 48621U 21043A   23185.72645780 -.00000007  00000-0  67835-4 0  9990",
    "TLE_LINE2": "2 48621  65.9977 109.6941 0008055 261.1825  98.8332 13.83376231107412",
    "OBJECT_ID": "2021-043A",
    "OBJECT_NUMBER": "48621",
    "SEMIMAJOR_AXIS": "7330.073",
    "PERIOD": "104.093",
    "APOGEE": "957.842",
    "PERIGEE": "946.034",
    "DECAYED": "0"
  },
  {
    "COMMENT": "GENERATED VIA SPACETRACK.ORG API",
    "ORIGINATOR": "18 SPCS",
    "NORAD_CAT_ID": "48621",
    "OBJECT_NAME": "HAIYANG 2D",
    "OBJECT_TYPE": "PAYLOAD",
    "CLASSIFICATION_TYPE": "U",
    "INTLDES": "21043A",
    "EPOCH": "2023-07-05 00:22:30",
    "EPOCH_MICROSECONDS": "984960",
    "MEAN_MOTION": "13.83376263",
    "ECCENTRICITY": "0.0008052",
    "INCLINATION": "65.9977",
    "RA_OF_ASC_NODE": "108.9742",
    "ARG_OF_PERICENTER": "261.1889",
    "MEAN_ANOMALY": "98.8267",
    "EPHEMERIS_TYPE": "0",
    "ELEMENT_SET_NO": "999",
    "REV_AT_EPOCH": "10745",
    "BSTAR": "0.000066927",
    "MEAN_MOTION_DOT": "-0.00000008",
    "MEAN_MOTION_DDOT": "0",
    "FILE": "3949919",
    "TLE_LINE0": "0 HAIYANG 2D",
    "TLE_LINE1": "1 48621U 21043A   23186.01563640 -.00000008  00000-0  66927-4 0  9999",
    "TLE_LINE2": "2 48621  65.9977 108.9742 0008052 261.1889  98.8267 13.83376263107456",
    "OBJECT_ID": "2021-043A",
    "OBJECT_NUMBER": "48621",
    "SEMIMAJOR_AXIS": "7330.073",
    "PERIOD": "104.093",
    "APOGEE": "957.840",
    "PERIGEE": "946.036",
    "DECAYED": "0"
  },
  {
    "COMMENT": "GENERATED VIA SPACETRACK.ORG API",
    "ORIGINATOR": "18 SPCS",
    "NORAD_CAT_ID": "48621",
    "OBJECT_NAME": "HAIYANG 2D",
    "OBJECT_TYPE": "PAYLOAD",
    "CLASSIFICATION_TYPE": "U",
    "INTLDES": "21043A",
    "EPOCH": "2023-07-05 09:03:02",
    "EPOCH_MICROSECONDS": "275488",
    "MEAN_MOTION": "13.83376322",
    "ECCENTRICITY": "0.0008044",
    "INCLINATION": "65.9977",
    "RA_OF_ASC_NODE": "108.0743",
    "ARG_OF_PERICENTER": "261.2645",
    "MEAN_ANOMALY": "98.7512",
    "EPHEMERIS_TYPE": "0",
    "ELEMENT_SET_NO": "999",
    "REV_AT_EPOCH": "10750",
    "BSTAR": "0.000070843",
    "MEAN_MOTION_DOT": "-0.00000003",
    "MEAN_MOTION_DDOT": "0",
    "FILE": "3950171",
    "TLE_LINE0": "0 HAIYANG 2D",
    "TLE_LINE1": "1 48621U 21043A   23186.37710967 -.00000003  00000-0  70843-4 0  9991",
    "TLE_LINE2": "2 48621  65.9977 108.0743 0008044 261.2645  98.7512 13.83376322107504",
    "OBJECT_ID": "2021-043A",
    "OBJECT_NUMBER": "48621",
    "SEMIMAJOR_AXIS": "7330.073",
    "PERIOD": "104.093",
    "APOGEE": "957.834",
    "PERIGEE": "946.041",
    "DECAYED": "0"
  },
  {
    "COMMENT": "GENERATED VIA SPACETRACK.ORG API",
    "ORIGINATOR": "18 SPCS",
    "NORAD_CAT_ID": "48621",
    "OBJECT_NAME": "HAIYANG 2D",
    "OBJECT_TYPE": "PAYLOAD",
    "CLASSIFICATION_TYPE": "U",
    "INTLDES": "21043A",
    "EPOCH": "2023-07-05 17:43:33",
    "EPOCH_MICROSECONDS": "563424",
    "MEAN_MOTION": "13.83376386",
    "ECCENTRICITY": "0.0008042",
    "INCLINATION": "65.9978",
    "RA_OF_ASC_NODE": "107.1744",
    "ARG_OF_PERICENTER": "261.2242",
    "MEAN_ANOMALY": "98.7916",
    "EPHEMERIS_TYPE": "0",
    "ELEMENT_SET_NO": "999",
    "REV_AT_EPOCH": "10755",
    "BSTAR": "0.000073088",
    "MEAN_MOTION_DOT": "-0.00000001",
    "MEAN_MOTION_DDOT": "0",
    "FILE": "3950489",
    "TLE_LINE0": "0 HAIYANG 2D",
    "TLE_LINE1": "1 48621U 21043A   23186.73858291 -.00000001  00000-0  73088-4 0  9996",
    "TLE_LINE2": "2 48621  65.9978 107.1744 0008042 261.2242  98.7916 13.83376386107550",
    "OBJECT_ID": "2021-043A",
    "OBJECT_NUMBER": "48621",
    "SEMIMAJOR_AXIS": "7330.072",
    "PERIOD": "104.093",
    "APOGEE": "957.832",
    "PERIGEE": "946.043",
    "DECAYED": "0"
  },
  {
    "COMMENT": "GENERATED VIA SPACETRACK.ORG API",
    "ORIGINATOR": "18 SPCS",
    "NORAD_CAT_ID": "48621",
    "OBJECT_NAME": "HAIYANG 2D",
    "OBJECT_TYPE": "PAYLOAD",
    "CLASSIFICATION_TYPE": "U",
    "INTLDES": "21043A",
    "EPOCH": "2023-07-06 02:24:04",
    "EPOCH_MICROSECONDS": "853088",
    "MEAN_MOTION": "13.83376412",
    "ECCENTRICITY": "0.0008033",
    "INCLINATION": "65.9978",
    "RA_OF_ASC_NODE": "106.2745",
    "ARG_OF_PERICENTER": "261.2441",
    "MEAN_ANOMALY": "98.7718",
    "EPHEMERIS_TYPE": "0",
    "ELEMENT_SET_NO": "999",
    "REV_AT_EPOCH": "10760",
    "BSTAR": "0.000073972",
    "MEAN_MOTION_DOT": "0",
    "MEAN_MOTION_DDOT": "0",
    "FILE": "3950797",
    "TLE_LINE0": "0 HAIYANG 2D",
    "TLE_LINE1": "1 48621U 21043A   23187.10005617  .00000000  00000-0  73972-4 0  9994",
    "TLE_LINE2": "2 48621  65.9978 106.2745 0008033 261.2441  98.7718 13.83376412107608",
    "OBJECT_ID": "2021-043A",
    "OBJECT_NUMBER": "48621",
    "SEMIMAJOR_AXIS": "7330.072",
    "PERIOD": "104.093",
    "APOGEE": "957.826",
    "PERIGEE": "946.049",
    "DECAYED": "0"
  },
  {
    "COMMENT": "GENERATED VIA SPACETRACK.ORG API",
    "ORIGINATOR": "18 SPCS",
    "NORAD_CAT_ID": "48621",
    "OBJECT_NAME": "HAIYANG 2D",
    "OBJECT_TYPE": "PAYLOAD",
    "CLASSIFICATION_TYPE": "U",
    "INTLDES": "21043A",
    "EPOCH": "2023-07-06 09:20:29",
    "EPOCH_MICROSECONDS": "883264",
    "MEAN_MOTION": "13.83376466",
    "ECCENTRICITY": "0.0008026",
    "INCLINATION": "65.9978",
    "RA_OF_ASC_NODE": "105.5545",
    "ARG_OF_PERICENTER": "261.2984",
    "MEAN_ANOMALY": "98.7175",
    "EPHEMERIS_TYPE": "0",
    "ELEMENT_SET_NO": "999",
    "REV_AT_EPOCH": "10764",
    "BSTAR": "0.000074695",
    "MEAN_MOTION_DOT": "0.00000001",
    "MEAN_MOTION_DDOT": "0",
    "FILE": "3951089",
    "TLE_LINE0": "0 HAIYANG 2D",
    "TLE_LINE1": "1 48621U 21043A   23187.38923476  .00000001  00000-0  74695-4 0  9990",
    "TLE_LINE2": "2 48621  65.9978 105.5545 0008026 261.2984  98.7175 13.83376466107642",
    "OBJECT_ID": "2021-043A",
    "OBJECT_NUMBER": "48621",
    "SEMIMAJOR_AXIS": "7330.072",
    "PERIOD": "104.093",
    "APOGEE": "957.820",
    "PERIGEE": "946.054",
    "DECAYED": "0"
  },
  {
    "COMMENT": "GENERATED VIA SPACETRACK.ORG API",
    "ORIGINATOR": "18 SPCS",
    "NORAD_CAT_ID": "48621",
    "OBJECT_NAME": "HAIYANG 2D",
    "OBJECT_TYPE": "PAYLOAD",
    "CLASSIFICATION_TYPE": "U",
    "INTLDES": "21043A",
    "EPOCH": "2023-07-06 19:45:07",
    "EPOCH_MICROSECONDS": "427232",
    "MEAN_MOTION": "13.83376523",
    "ECCENTRICITY": "0.0008014",
    "INCLINATION": "65.9979",
    "RA_OF_ASC_NODE": "104.4746",
    "ARG_OF_PERICENTER": "261.2806",
    "MEAN_ANOMALY": "98.7355",
    "EPHEMERIS_TYPE": "0",
    "ELEMENT_SET_NO": "999",
    "REV_AT_EPOCH": "10770",
    "BSTAR": "0.000073329",
    "MEAN_MOTION_DOT": "0",
    "MEAN_MOTION_DDOT": "0",
    "FILE": "3951388",
    "TLE_LINE0": "0 HAIYANG 2D",
    "TLE_LINE1": "1 48621U 21043A   23187.82300263 -.00000000  00000-0  73329-4 0  9995",
    "TLE_LINE2": "2 48621  65.9979 104.4746 0008014 261.2806  98.7355 13.83376523107705",
    "OBJECT_ID": "2021-043A",
    "OBJECT_NUMBER": "48621",
    "SEMIMAJOR_AXIS": "7330.072",
    "PERIOD": "104.093",
    "APOGEE": "957.811",
    "PERIGEE": "946.063",
    "DECAYED": "0"
  },
  {
    "COMMENT": "GENERATED VIA SPACETRACK.ORG API",
    "ORIGINATOR": "18 SPCS",
    "NORAD_CAT_ID": "48621",
    "OBJECT_NAME": "HAIYANG 2D",
    "OBJECT_TYPE": "PAYLOAD",
    "CLASSIFICATION_TYPE": "U",
    "INTLDES": "21043A",
    "EPOCH": "2023-07-07 04:25:38",
    "EPOCH_MICROSECONDS": "715168",
    "MEAN_MOTION": "13.83376599",
    "ECCENTRICITY": "0.0008005",
    "INCLINATION": "65.9979",
    "RA_OF_ASC_NODE": "103.5747",
    "ARG_OF_PERICENTER": "261.3493",
    "MEAN_ANOMALY": "98.6668",
    "EPHEMERIS_TYPE": "0",
    "ELEMENT_SET_NO": "999",
    "REV_AT_EPOCH": "10775",
    "BSTAR": "0.000082222",
    "MEAN_MOTION_DOT": "0.00000009",
    "MEAN_MOTION_DDOT": "0",
    "FILE": "3951677",
    "TLE_LINE0": "0 HAIYANG 2D",
    "TLE_LINE1": "1 48621U 21043A   23188.18447587  .00000009  00000-0  82222-4 0  9996",
    "TLE_LINE2": "2 48621  65.9979 103.5747 0008005 261.3493  98.6668 13.83376599107753",
    "OBJECT_ID": "2021-043A",
    "OBJECT_NUMBER": "48621",
    "SEMIMAJOR_AXIS": "7330.072",
    "PERIOD": "104.093",
    "APOGEE": "957.804",
    "PERIGEE": "946.069",
    "DECAYED": "0"
  }
]